start=new Date('2023-07-01T00:00:00.000Z').valueOf();
sats=[{"MEAN_MOTION":"15.01263161","INCLINATION":"97.6562","MEAN_MOTION_DDOT":"0.0000000000000","OBJECT_TYPE":"PAYLOAD","PERIOD":"95.919","CENTER_NAME":"EARTH","TIME_SYSTEM":"UTC","EPHEMERIS_TYPE":"0","ECCENTRICITY":"0.00027500","ARG_OF_PERICENTER":"123.7766","TLE_LINE1":"1 53077U 22077AL  23181.53514620  .00000147  00000-0  16051-4 0  9990","EPOCH":"2023-06-30T12:50:36.631680","TLE_LINE2":"2 53077  97.6562   2.4041 0002750 123.7766 236.3720 15.01263161 53991","MEAN_MOTION_DOT":"0.00000147","NORAD_CAT_ID":"53077","SITE":"AFWTR","FILE":"3946098","PERIAPSIS":"561.093","MEAN_ANOMALY":"236.3720","MEAN_ELEMENT_THEORY":"SGP4","ELEMENT_SET_NO":"999","REF_FRAME":"TEME","APOAPSIS":"564.911","GP_ID":"234633665","SEMIMAJOR_AXIS":"6941.137","DECAY_DATE":null,"LAUNCH_DATE":"2022-07-11","OBJECT_NAME":"STARLINK-4315","BSTAR":"0.00001605100000","OBJECT_ID":"2022-077AL","COUNTRY_CODE":"US","RCS_SIZE":"LARGE","REV_AT_EPOCH":"5399","CLASSIFICATION_TYPE":"U","RA_OF_ASC_NODE":"2.4041"},{"RA_OF_ASC_NODE":"0.6338","CLASSIFICATION_TYPE":"U","REV_AT_EPOCH":"5372","RCS_SIZE":"LARGE","BSTAR":"0.00000747820000","OBJECT_ID":"2022-077AM","COUNTRY_CODE":"US","LAUNCH_DATE":"2022-07-11","OBJECT_NAME":"STARLINK-4322","GP_ID":"234612403","SEMIMAJOR_AXIS":"6941.147","DECAY_DATE":null,"ELEMENT_SET_NO":"999","REF_FRAME":"TEME","APOAPSIS":"564.966","MEAN_ELEMENT_THEORY":"SGP4","PERIAPSIS":"561.058","MEAN_ANOMALY":"201.0498","SITE":"AFWTR","FILE":"3945241","EPOCH":"2023-06-28T17:44:29.899680","TLE_LINE2":"2 53078  97.6554   0.6338 0002815 159.0842 201.0498 15.01260031 53726","MEAN_MOTION_DOT":"0.00000037","NORAD_CAT_ID":"53078","CENTER_NAME":"EARTH","TIME_SYSTEM":"UTC","EPHEMERIS_TYPE":"0","ECCENTRICITY":"0.00028150","ARG_OF_PERICENTER":"159.0842","TLE_LINE1":"1 53078U 22077AM  23179.73923495  .00000037  00000-0  74782-5 0  9998","PERIOD":"95.919","INCLINATION":"97.6554","MEAN_MOTION":"15.01260031","MEAN_MOTION_DDOT":"0.0000000000000","OBJECT_TYPE":"PAYLOAD"},{"GP_ID":"234615009","DECAY_DATE":null,"SEMIMAJOR_AXIS":"6941.153","OBJECT_NAME":"STARLINK-4327","LAUNCH_DATE":"2022-07-11","MEAN_ELEMENT_THEORY":"SGP4","APOAPSIS":"565.026","REF_FRAME":"TEME","ELEMENT_SET_NO":"999","CLASSIFICATION_TYPE":"U","RA_OF_ASC_NODE":"0.9576","COUNTRY_CODE":"US","OBJECT_ID":"2022-077AN","BSTAR":"0.00002011900000","RCS_SIZE":"LARGE","REV_AT_EPOCH":"5377","OBJECT_TYPE":"PAYLOAD","MEAN_MOTION_DDOT":"0.0000000000000","MEAN_MOTION":"15.01258105","INCLINATION":"97.6569","PERIOD":"95.920","FILE":"3945331","SITE":"AFWTR","MEAN_ANOMALY":"245.8672","PERIAPSIS":"561.009","TLE_LINE1":"1 53079U 22077AN  23180.06694687  .00000199  00000-0  20119-4 0  9998","ARG_OF_PERICENTER":"114.2855","EPHEMERIS_TYPE":"0","ECCENTRICITY":"0.00028940","TIME_SYSTEM":"UTC","CENTER_NAME":"EARTH","NORAD_CAT_ID":"53079","MEAN_MOTION_DOT":"0.00000199","TLE_LINE2":"2 53079  97.6569   0.9576 0002894 114.2855 245.8672 15.01258105 53778","EPOCH":"2023-06-29T01:36:24.209568"},{"OBJECT_TYPE":"PAYLOAD","MEAN_MOTION":"15.01261159","INCLINATION":"97.6556","MEAN_MOTION_DDOT":"0.0000000000000","PERIOD":"95.919","FILE":"3945089","SITE":"AFWTR","PERIAPSIS":"560.888","MEAN_ANOMALY":"222.3162","ARG_OF_PERICENTER":"137.8298","TLE_LINE1":"1 53080U 22077AP  23179.73738443  .00000201  00000-0  20225-4 0  9993","TIME_SYSTEM":"UTC","CENTER_NAME":"EARTH","EPHEMERIS_TYPE":"0","ECCENTRICITY":"0.00030540","MEAN_MOTION_DOT":"0.00000201","NORAD_CAT_ID":"53080","EPOCH":"2023-06-28T17:41:50.014752","TLE_LINE2":"2 53080  97.6556   0.6319 0003054 137.8298 222.3162 15.01261159 53721","SEMIMAJOR_AXIS":"6941.143","GP_ID":"234608931","DECAY_DATE":null,"OBJECT_NAME":"STARLINK-4330","LAUNCH_DATE":"2022-07-11","MEAN_ELEMENT_THEORY":"SGP4","REF_FRAME":"TEME","APOAPSIS":"565.128","ELEMENT_SET_NO":"999","CLASSIFICATION_TYPE":"U","RA_OF_ASC_NODE":"0.6319","COUNTRY_CODE":"US","BSTAR":"0.00002022500000","OBJECT_ID":"2022-077AP","REV_AT_EPOCH":"5372","RCS_SIZE":"MEDIUM"},{"PERIOD":"95.921","MEAN_MOTION":"15.01230857","INCLINATION":"97.6557","MEAN_MOTION_DDOT":"0.0000000000000","OBJECT_TYPE":"PAYLOAD","PERIAPSIS":"562.237","MEAN_ANOMALY":"78.7959","SITE":"AFWTR","FILE":"3945841","EPOCH":"2023-06-29T22:00:00.999936","TLE_LINE2":"2 53081  97.6557   1.7532 0001246 110.8670  78.7959 15.01230857 53906","MEAN_MOTION_DOT":"0.00071716","NORAD_CAT_ID":"53081","TIME_SYSTEM":"UTC","CENTER_NAME":"EARTH","ECCENTRICITY":"0.00012460","EPHEMERIS_TYPE":"0","ARG_OF_PERICENTER":"110.8670","TLE_LINE1":"1 53081U 22077AQ  23180.91667824  .00071716  00000-0  55358-2 0  9992","LAUNCH_DATE":"2022-07-11","OBJECT_NAME":"STARLINK-4326","DECAY_DATE":null,"GP_ID":"234627483","SEMIMAJOR_AXIS":"6941.237","ELEMENT_SET_NO":"999","REF_FRAME":"TEME","APOAPSIS":"563.967","MEAN_ELEMENT_THEORY":"SGP4","RA_OF_ASC_NODE":"1.7532","CLASSIFICATION_TYPE":"U","RCS_SIZE":"LARGE","REV_AT_EPOCH":"5390","BSTAR":"0.00553580000000","OBJECT_ID":"2022-077AQ","COUNTRY_CODE":"US"},{"REV_AT_EPOCH":"5399","RCS_SIZE":"LARGE","COUNTRY_CODE":"US","BSTAR":"0.00004675100000","OBJECT_ID":"2022-077AR","RA_OF_ASC_NODE":"2.4027","CLASSIFICATION_TYPE":"U","REF_FRAME":"TEME","APOAPSIS":"564.907","ELEMENT_SET_NO":"999","MEAN_ELEMENT_THEORY":"SGP4","OBJECT_NAME":"STARLINK-4321","LAUNCH_DATE":"2022-07-11","GP_ID":"234634294","SEMIMAJOR_AXIS":"6941.134","DECAY_DATE":null,"MEAN_MOTION_DOT":"0.00000542","NORAD_CAT_ID":"53082","EPOCH":"2023-06-30T12:45:16.795296","TLE_LINE2":"2 53082  97.6578   2.4027 0002749  95.9460 264.2078 15.01264208 53996","ARG_OF_PERICENTER":"95.9460","TLE_LINE1":"1 53082U 22077AR  23181.53144439  .00000542  00000-0  46751-4 0  9992","TIME_SYSTEM":"UTC","CENTER_NAME":"EARTH","EPHEMERIS_TYPE":"0","ECCENTRICITY":"0.00027490","PERIAPSIS":"561.091","MEAN_ANOMALY":"264.2078","FILE":"3946107","SITE":"AFWTR","PERIOD":"95.919","OBJECT_TYPE":"PAYLOAD","INCLINATION":"97.6578","MEAN_MOTION":"15.01264208","MEAN_MOTION_DDOT":"0.0000000000000"},{"MEAN_ANOMALY":"292.2611","PERIAPSIS":"561.674","SITE":"AFWTR","FILE":"3944982","TLE_LINE2":"2 53083  97.6571   0.3671 0001927  67.8818 292.2611 15.01260119 53681","EPOCH":"2023-06-28T10:51:15.506784","NORAD_CAT_ID":"53083","MEAN_MOTION_DOT":"0.00000404","ECCENTRICITY":"0.00019270","EPHEMERIS_TYPE":"0","CENTER_NAME":"EARTH","TIME_SYSTEM":"UTC","TLE_LINE1":"1 53083U 22077AS  23179.45226281  .00000404  00000-0  36074-4 0  9991","ARG_OF_PERICENTER":"67.8818","PERIOD":"95.919","MEAN_MOTION_DDOT":"0.0000000000000","INCLINATION":"97.6571","MEAN_MOTION":"15.01260119","OBJECT_TYPE":"PAYLOAD","RA_OF_ASC_NODE":"0.3671","CLASSIFICATION_TYPE":"U","RCS_SIZE":"LARGE","REV_AT_EPOCH":"5368","OBJECT_ID":"2022-077AS","BSTAR":"0.00003607400000","COUNTRY_CODE":"US","LAUNCH_DATE":"2022-07-11","OBJECT_NAME":"STARLINK-4251","GP_ID":"234605966","DECAY_DATE":null,"SEMIMAJOR_AXIS":"6941.146","ELEMENT_SET_NO":"999","APOAPSIS":"564.349","REF_FRAME":"TEME","MEAN_ELEMENT_THEORY":"SGP4"},{"MEAN_MOTION":"15.01259665","INCLINATION":"97.6587","MEAN_MOTION_DDOT":"0.0000000000000","OBJECT_TYPE":"PAYLOAD","PERIOD":"95.919","SITE":"AFWTR","FILE":"3945373","PERIAPSIS":"561.253","MEAN_ANOMALY":"273.9277","TIME_SYSTEM":"UTC","CENTER_NAME":"EARTH","EPHEMERIS_TYPE":"0","ECCENTRICITY":"0.00025360","ARG_OF_PERICENTER":"86.2237","TLE_LINE1":"1 53084U 22077AT  23180.06324277  .00000576  00000-0  49418-4 0  9991","EPOCH":"2023-06-29T01:31:04.175328","TLE_LINE2":"2 53084  97.6587   0.9565 0002536  86.2237 273.9277 15.01259665 53772","MEAN_MOTION_DOT":"0.00000576","NORAD_CAT_ID":"53084","SEMIMAJOR_AXIS":"6941.148","GP_ID":"234615608","DECAY_DATE":null,"LAUNCH_DATE":"2022-07-11","OBJECT_NAME":"STARLINK-4319","MEAN_ELEMENT_THEORY":"SGP4","ELEMENT_SET_NO":"999","REF_FRAME":"TEME","APOAPSIS":"564.773","CLASSIFICATION_TYPE":"U","RA_OF_ASC_NODE":"0.9565","BSTAR":"0.00004941800000","OBJECT_ID":"2022-077AT","COUNTRY_CODE":"US","RCS_SIZE":"LARGE","REV_AT_EPOCH":"5377"},{"RA_OF_ASC_NODE":"0.9631","CLASSIFICATION_TYPE":"U","RCS_SIZE":"LARGE","REV_AT_EPOCH":"5377","OBJECT_ID":"2022-077AU","BSTAR":"0.00005060700000","COUNTRY_CODE":"US","LAUNCH_DATE":"2022-07-11","OBJECT_NAME":"STARLINK-4324","DECAY_DATE":null,"GP_ID":"234614504","SEMIMAJOR_AXIS":"6941.153","ELEMENT_SET_NO":"999","APOAPSIS":"563.703","REF_FRAME":"TEME","MEAN_ELEMENT_THEORY":"SGP4","MEAN_ANOMALY":"254.3387","PERIAPSIS":"562.333","SITE":"AFWTR","FILE":"3945331","TLE_LINE2":"2 53085  97.6581   0.9631 0000987 105.7946 254.3387 15.01258079 53776","EPOCH":"2023-06-29T01:23:25.204704","NORAD_CAT_ID":"53085","MEAN_MOTION_DOT":"0.00000591","EPHEMERIS_TYPE":"0","ECCENTRICITY":"0.00009870","TIME_SYSTEM":"UTC","CENTER_NAME":"EARTH","TLE_LINE1":"1 53085U 22077AU  23180.05793061  .00000591  00000-0  50607-4 0  9991","ARG_OF_PERICENTER":"105.7946","PERIOD":"95.920","MEAN_MOTION_DDOT":"0.0000000000000","MEAN_MOTION":"15.01258079","INCLINATION":"97.6581","OBJECT_TYPE":"PAYLOAD"},{"LAUNCH_DATE":"2022-07-11","OBJECT_NAME":"STARLINK-4318","SEMIMAJOR_AXIS":"6941.152","GP_ID":"234615002","DECAY_DATE":null,"ELEMENT_SET_NO":"999","APOAPSIS":"564.600","REF_FRAME":"TEME","MEAN_ELEMENT_THEORY":"SGP4","RA_OF_ASC_NODE":"0.9578","CLASSIFICATION_TYPE":"U","REV_AT_EPOCH":"5377","RCS_SIZE":"LARGE","OBJECT_ID":"2022-077AV","BSTAR":"0.00004855900000","COUNTRY_CODE":"US","PERIOD":"95.920","MEAN_MOTION_DDOT":"0.0000000000000","MEAN_MOTION":"15.01258342","INCLINATION":"97.6593","OBJECT_TYPE":"PAYLOAD","MEAN_ANOMALY":"275.7574","PERIAPSIS":"561.434","SITE":"AFWTR","FILE":"3945331","TLE_LINE2":"2 53086  97.6593   0.9578 0002280  84.3910 275.7574 15.01258342 53779","EPOCH":"2023-06-29T01:28:24.238560","NORAD_CAT_ID":"53086","MEAN_MOTION_DOT":"0.00000565","EPHEMERIS_TYPE":"0","ECCENTRICITY":"0.00022800","CENTER_NAME":"EARTH","TIME_SYSTEM":"UTC","TLE_LINE1":"1 53086U 22077AV  23180.06139165  .00000565  00000-0  48559-4 0  9996","ARG_OF_PERICENTER":"84.3910"}];
